{"fetched_at":"2026-07-24T07:06:49.459Z","source":"https://celestrak.org/NORAD/elements/gp.php?NAME=SENTINEL&FORMAT=JSON","constellation":"sentinel-6","records":[{"OBJECT_NAME":"SENTINEL-6A","OBJECT_ID":"2020-086A","EPOCH":"2026-07-23T01:53:01.311360","CLASSIFICATION_TYPE":"U","MEAN_MOTION":12.8093028,"ECCENTRICITY":0.00077799,"INCLINATION":66.041,"RA_OF_ASC_NODE":60.506,"ARG_OF_PERICENTER":269.6212,"MEAN_ANOMALY":90.3912,"EPHEMERIS_TYPE":0,"NORAD_CAT_ID":46984,"ELEMENT_SET_NO":999,"REV_AT_EPOCH":26492,"BSTAR":0.000009039408,"MEAN_MOTION_DOT":-5.9e-7,"MEAN_MOTION_DDOT":0},{"OBJECT_NAME":"SENTINEL-6B","OBJECT_ID":"2025-264A","EPOCH":"2026-07-23T07:30:48.649248","CLASSIFICATION_TYPE":"U","MEAN_MOTION":12.80930299,"ECCENTRICITY":0.00078205,"INCLINATION":66.041,"RA_OF_ASC_NODE":60.145,"ARG_OF_PERICENTER":268.3435,"MEAN_ANOMALY":91.6684,"EPHEMERIS_TYPE":0,"NORAD_CAT_ID":66514,"ELEMENT_SET_NO":999,"REV_AT_EPOCH":3179,"BSTAR":0.00001306491,"MEAN_MOTION_DOT":-5.8e-7,"MEAN_MOTION_DDOT":0}]}
